{
"type": "FeatureCollection",
"name": "pl36",
"crs": { "type": "name", "properties": { "name": "urn:ogc:def:crs:OGC:1.3:CRS84" } },
"features": [
{ "type": "Feature", "properties": { "gid": 10, "nazwa": "Łódź", "źródło": "wektoryzacja własna na podstawie danych OSM", "legenda": "stolica województwa", "liczba_ludności": null }, "geometry": { "type": "Point", "coordinates": [ 19.458079458747239, 51.769679223133508 ] } },
{ "type": "Feature", "properties": { "gid": 11, "nazwa": "Katowice", "źródło": "wektoryzacja własna na podstawie danych OSM", "legenda": "stolica województwa", "liczba_ludności": null }, "geometry": { "type": "Point", "coordinates": [ 19.031546217018327, 50.259104904132911 ] } },
{ "type": "Feature", "properties": { "gid": 12, "nazwa": "Opole", "źródło": "wektoryzacja własna na podstawie danych OSM", "legenda": "stolica województwa", "liczba_ludności": null }, "geometry": { "type": "Point", "coordinates": [ 17.925171216533752, 50.66638520619022 ] } },
{ "type": "Feature", "properties": { "gid": 13, "nazwa": "Wrocław", "źródło": "wektoryzacja własna na podstawie danych OSM", "legenda": "stolica województwa", "liczba_ludności": null }, "geometry": { "type": "Point", "coordinates": [ 17.03467426492421, 51.107524849265566 ] } },
{ "type": "Feature", "properties": { "gid": 14, "nazwa": "Poznań", "źródło": "wektoryzacja własna na podstawie danych OSM", "legenda": "stolica województwa", "liczba_ludności": null }, "geometry": { "type": "Point", "coordinates": [ 16.93050730316865, 52.40633196071829 ] } },
{ "type": "Feature", "properties": { "gid": 15, "nazwa": "Gorzów Wielkopolski", "źródło": "wektoryzacja własna na podstawie danych OSM", "legenda": "stolica województwa", "liczba_ludności": null }, "geometry": { "type": "Point", "coordinates": [ 15.237141317638079, 52.733295476825468 ] } },
{ "type": "Feature", "properties": { "gid": 16, "nazwa": "Zielona Góra", "źródło": "wektoryzacja własna na podstawie danych OSM", "legenda": "stolica województwa", "liczba_ludności": null }, "geometry": { "type": "Point", "coordinates": [ 15.504667609389136, 51.940651902934199 ] } },
{ "type": "Feature", "properties": { "gid": 17, "nazwa": "Bydgoszcz", "źródło": "wektoryzacja własna na podstawie danych OSM", "legenda": "stolica województwa", "liczba_ludności": null }, "geometry": { "type": "Point", "coordinates": [ 18.003804215519153, 53.120210666016817 ] } },
{ "type": "Feature", "properties": { "gid": 18, "nazwa": "Toruń", "źródło": "wektoryzacja własna na podstawie danych OSM", "legenda": "stolica województwa", "liczba_ludności": null }, "geometry": { "type": "Point", "coordinates": [ 18.608059641301782, 53.011587448224127 ] } },
{ "type": "Feature", "properties": { "gid": 1, "nazwa": "Szczecin", "źródło": "wektoryzacja własna na podstawie danych OSM", "legenda": "stolica województwa", "liczba_ludności": null }, "geometry": { "type": "Point", "coordinates": [ 14.550916068189846, 53.429400907347642 ] } },
{ "type": "Feature", "properties": { "gid": 2, "nazwa": "Gdańsk", "źródło": "wektoryzacja własna na podstawie danych OSM", "legenda": "stolica województwa", "liczba_ludności": null }, "geometry": { "type": "Point", "coordinates": [ 18.652889155483464, 54.351553273319126 ] } },
{ "type": "Feature", "properties": { "gid": 3, "nazwa": "Olsztyn", "źródło": "wektoryzacja własna na podstawie danych OSM", "legenda": "stolica województwa", "liczba_ludności": null }, "geometry": { "type": "Point", "coordinates": [ 20.488723046924843, 53.775300138121501 ] } },
{ "type": "Feature", "properties": { "gid": 4, "nazwa": "Białystok", "źródło": "wektoryzacja własna na podstawie danych OSM", "legenda": "stolica województwa", "liczba_ludności": null }, "geometry": { "type": "Point", "coordinates": [ 23.142659302348996, 53.135967019698398 ] } },
{ "type": "Feature", "properties": { "gid": 5, "nazwa": "Warszawa", "źródło": "wektoryzacja własna na podstawie danych OSM", "legenda": "stolica województwa", "liczba_ludności": null }, "geometry": { "type": "Point", "coordinates": [ 21.0043349996815, 52.236515761990027 ] } },
{ "type": "Feature", "properties": { "gid": 6, "nazwa": "Lublin", "źródło": "wektoryzacja własna na podstawie danych OSM", "legenda": "stolica województwa", "liczba_ludności": null }, "geometry": { "type": "Point", "coordinates": [ 22.56901561602379, 51.249497124669823 ] } },
{ "type": "Feature", "properties": { "gid": 7, "nazwa": "Rzeszów", "źródło": "wektoryzacja własna na podstawie danych OSM", "legenda": "stolica województwa", "liczba_ludności": null }, "geometry": { "type": "Point", "coordinates": [ 22.009154466421112, 50.041571369479612 ] } },
{ "type": "Feature", "properties": { "gid": 8, "nazwa": "Kraków", "źródło": "wektoryzacja własna na podstawie danych OSM", "legenda": "stolica województwa", "liczba_ludności": null }, "geometry": { "type": "Point", "coordinates": [ 19.939307609364523, 50.063089862869113 ] } },
{ "type": "Feature", "properties": { "gid": 9, "nazwa": "Kielce", "źródło": "wektoryzacja własna na podstawie danych OSM", "legenda": "stolica województwa", "liczba_ludności": null }, "geometry": { "type": "Point", "coordinates": [ 20.637284284860364, 50.873746794756016 ] } }
]
}
